{
  "type": "FeatureCollection",
  "features": [
    {
      "type": "Feature",
      "properties": {
        "norad_id": 32088,
        "name": "FENGYUN 1C DEB",
        "group": "fengyun-1c-debris",
        "lat": -26.968971896984666,
        "lon": 34.90089363649895,
        "alt_km": 1404.1206836582487,
        "timestamp": "2025-12-19T22:41:52.678556+00:00",
        "meta_object_name": "FENGYUN 1C DEB",
        "meta_object_id": "1999-025CQE",
        "meta_epoch": "2025-12-18T09:23:26.142720",
        "meta_mean_motion": 13.2520573,
        "meta_eccentricity": 0.04616803,
        "meta_inclination": 102.4007,
        "meta_ra_of_asc_node": 219.4739,
        "meta_arg_of_pericenter": 344.9897,
        "meta_mean_anomaly": 13.7893,
        "meta_ephemeris_type": 0,
        "meta_classification_type": "U",
        "meta_norad_cat_id": 32088,
        "meta_element_set_no": 999,
        "meta_rev_at_epoch": 59919,
        "meta_bstar": 0.002531262,
        "meta_mean_motion_dot": 1.891e-05,
        "meta_mean_motion_ddot": 0,
        "tle_line1": "1 32088U 99025CQE 25352.39127480  .00001891  00000+0  25313-2 0  9991",
        "tle_line2": "2 32088 102.4007 219.4739 0461680 344.9897  13.7893 13.25205730599193"
      },
      "geometry": {
        "type": "Point",
        "coordinates": [
          34.90089363649895,
          -26.968971896984666
        ]
      }
    },
    {
      "type": "Feature",
      "properties": {
        "norad_id": 32089,
        "name": "FENGYUN 1C DEB",
        "group": "fengyun-1c-debris",
        "lat": 80.9697920239005,
        "lon": -74.11448093212759,
        "alt_km": 759.8858703134856,
        "timestamp": "2025-12-19T22:41:52.678566+00:00",
        "meta_object_name": "FENGYUN 1C DEB",
        "meta_object_id": "1999-025CQF",
        "meta_epoch": "2025-12-16T17:52:20.830656",
        "meta_mean_motion": 14.14077902,
        "meta_eccentricity": 0.01123897,
        "meta_inclination": 98.6547,
        "meta_ra_of_asc_node": 356.1944,
        "meta_arg_of_pericenter": 112.6503,
        "meta_mean_anomaly": 248.6602,
        "meta_ephemeris_type": 0,
        "meta_classification_type": "U",
        "meta_norad_cat_id": 32089,
        "meta_element_set_no": 999,
        "meta_rev_at_epoch": 63272,
        "meta_bstar": 0.00051322825,
        "meta_mean_motion_dot": 9.96e-06,
        "meta_mean_motion_ddot": 0,
        "tle_line1": "1 32089U 99025CQF 25350.74468554  .00000996  00000+0  51323-3 0  9995",
        "tle_line2": "2 32089  98.6547 356.1944 0112389 112.6503 248.6602 14.14077902632720"
      },
      "geometry": {
        "type": "Point",
        "coordinates": [
          -74.11448093212759,
          80.9697920239005
        ]
      }
    },
    {
      "type": "Feature",
      "properties": {
        "norad_id": 32093,
        "name": "FENGYUN 1C DEB",
        "group": "fengyun-1c-debris",
        "lat": -54.83091845832926,
        "lon": 14.170979925416006,
        "alt_km": 779.3908079972407,
        "timestamp": "2025-12-19T22:41:52.678579+00:00",
        "meta_object_name": "FENGYUN 1C DEB",
        "meta_object_id": "1999-025CQK",
        "meta_epoch": "2025-12-17T21:09:28.777248",
        "meta_mean_motion": 14.37620073,
        "meta_eccentricity": 0.00791445,
        "meta_inclination": 98.9196,
        "meta_ra_of_asc_node": 204.9088,
        "meta_arg_of_pericenter": 338.4281,
        "meta_mean_anomaly": 21.3576,
        "meta_ephemeris_type": 0,
        "meta_classification_type": "U",
        "meta_norad_cat_id": 32093,
        "meta_element_set_no": 999,
        "meta_rev_at_epoch": 96591,
        "meta_bstar": 0.00035426884,
        "meta_mean_motion_dot": 1.054e-05,
        "meta_mean_motion_ddot": 0,
        "tle_line1": "1 32093U 99025CQK 25351.88158307  .00001054  00000+0  35427-3 0  9991",
        "tle_line2": "2 32093  98.9196 204.9088 0079144 338.4281  21.3576 14.37620073965913"
      },
      "geometry": {
        "type": "Point",
        "coordinates": [
          14.170979925416006,
          -54.83091845832926
        ]
      }
    },
    {
      "type": "Feature",
      "properties": {
        "norad_id": 32094,
        "name": "FENGYUN 1C DEB",
        "group": "fengyun-1c-debris",
        "lat": 46.120877576735445,
        "lon": -25.04521648865981,
        "alt_km": 875.8281923541026,
        "timestamp": "2025-12-19T22:41:52.678592+00:00",
        "meta_object_name": "FENGYUN 1C DEB",
        "meta_object_id": "1999-025CQL",
        "meta_epoch": "2025-12-18T22:38:42.095328",
        "meta_mean_motion": 14.10735943,
        "meta_eccentricity": 0.00340693,
        "meta_inclination": 98.7451,
        "meta_ra_of_asc_node": 343.1904,
        "meta_arg_of_pericenter": 250.4643,
        "meta_mean_anomaly": 109.2847,
        "meta_ephemeris_type": 0,
        "meta_classification_type": "U",
        "meta_norad_cat_id": 32094,
        "meta_element_set_no": 999,
        "meta_rev_at_epoch": 94452,
        "meta_bstar": 0.00028660762,
        "meta_mean_motion_dot": 4.72e-06,
        "meta_mean_motion_ddot": 0,
        "tle_line1": "1 32094U 99025CQL 25352.94354277  .00000472  00000+0  28661-3 0  9999",
        "tle_line2": "2 32094  98.7451 343.1904 0034069 250.4643 109.2847 14.10735943944526"
      },
      "geometry": {
        "type": "Point",
        "coordinates": [
          -25.04521648865981,
          46.120877576735445
        ]
      }
    },
    {
      "type": "Feature",
      "properties": {
        "norad_id": 32095,
        "name": "FENGYUN 1C DEB",
        "group": "fengyun-1c-debris",
        "lat": -4.579396688597446,
        "lon": 10.043057189965161,
        "alt_km": 828.232671570001,
        "timestamp": "2025-12-19T22:41:52.678602+00:00",
        "meta_object_name": "FENGYUN 1C DEB",
        "meta_object_id": "1999-025CQM",
        "meta_epoch": "2025-12-19T07:27:26.684928",
        "meta_mean_motion": 14.16046866,
        "meta_eccentricity": 0.0079063,
        "meta_inclination": 98.6406,
        "meta_ra_of_asc_node": 8.7292,
        "meta_arg_of_pericenter": 73.5373,
        "meta_mean_anomaly": 287.4472,
        "meta_ephemeris_type": 0,
        "meta_classification_type": "U",
        "meta_norad_cat_id": 32095,
        "meta_element_set_no": 999,
        "meta_rev_at_epoch": 94910,
        "meta_bstar": 0.00022441,
        "meta_mean_motion_dot": 4.15e-06,
        "meta_mean_motion_ddot": 0,
        "tle_line1": "1 32095U 99025CQM 25353.31072552  .00000415  00000+0  22441-3 0  9992",
        "tle_line2": "2 32095  98.6406   8.7292 0079063  73.5373 287.4472 14.16046866949104"
      },
      "geometry": {
        "type": "Point",
        "coordinates": [
          10.043057189965161,
          -4.579396688597446
        ]
      }
    },
    {
      "type": "Feature",
      "properties": {
        "norad_id": 32096,
        "name": "FENGYUN 1C DEB",
        "group": "fengyun-1c-debris",
        "lat": -19.19267600923107,
        "lon": -160.42487762855842,
        "alt_km": 912.5713395453886,
        "timestamp": "2025-12-19T22:41:52.678613+00:00",
        "meta_object_name": "FENGYUN 1C DEB",
        "meta_object_id": "1999-025CQN",
        "meta_epoch": "2025-12-19T01:01:41.296512",
        "meta_mean_motion": 13.90212698,
        "meta_eccentricity": 0.01345301,
        "meta_inclination": 99.073,
        "meta_ra_of_asc_node": 21.8827,
        "meta_arg_of_pericenter": 122.9442,
        "meta_mean_anomaly": 238.4737,
        "meta_ephemeris_type": 0,
        "meta_classification_type": "U",
        "meta_norad_cat_id": 32096,
        "meta_element_set_no": 999,
        "meta_rev_at_epoch": 92949,
        "meta_bstar": 0.0010220231,
        "meta_mean_motion_dot": 1.319e-05,
        "meta_mean_motion_ddot": 0,
        "tle_line1": "1 32096U 99025CQN 25353.04283908  .00001319  00000+0  10220-2 0  9997",
        "tle_line2": "2 32096  99.0730  21.8827 0134530 122.9442 238.4737 13.90212698929496"
      },
      "geometry": {
        "type": "Point",
        "coordinates": [
          -160.42487762855842,
          -19.19267600923107
        ]
      }
    },
    {
      "type": "Feature",
      "properties": {
        "norad_id": 32098,
        "name": "FENGYUN 1C DEB",
        "group": "fengyun-1c-debris",
        "lat": -62.98534157012678,
        "lon": 3.4959243728831817,
        "alt_km": 966.519509769173,
        "timestamp": "2025-12-19T22:41:52.678623+00:00",
        "meta_object_name": "FENGYUN 1C DEB",
        "meta_object_id": "1999-025CQQ",
        "meta_epoch": "2025-12-17T05:04:00.480288",
        "meta_mean_motion": 14.20263212,
        "meta_eccentricity": 0.01958107,
        "meta_inclination": 98.6122,
        "meta_ra_of_asc_node": 343.5394,
        "meta_arg_of_pericenter": 106.9951,
        "meta_mean_anomaly": 255.2785,
        "meta_ephemeris_type": 0,
        "meta_classification_type": "U",
        "meta_norad_cat_id": 32098,
        "meta_element_set_no": 999,
        "meta_rev_at_epoch": 64291,
        "meta_bstar": 0.00022141039,
        "meta_mean_motion_dot": 5.31e-06,
        "meta_mean_motion_ddot": 0,
        "tle_line1": "1 32098U 99025CQQ 25351.21111667  .00000531  00000+0  22141-3 0  9999",
        "tle_line2": "2 32098  98.6122 343.5394 0195810 106.9951 255.2785 14.20263212642917"
      },
      "geometry": {
        "type": "Point",
        "coordinates": [
          3.4959243728831817,
          -62.98534157012678
        ]
      }
    }
  ]
}